[{"OBJECT_NAME":"FENGYUN 1C DEB","OBJECT_ID":"1999-025AGD","EPOCH":"2026-03-06T14:19:03.075168","MEAN_MOTION":14.22946248,"ECCENTRICITY":0.01182935,"INCLINATION":98.6461,"RA_OF_ASC_NODE":109.1467,"ARG_OF_PERICENTER":140.7108,"MEAN_ANOMALY":11.0222,"EPHEMERIS_TYPE":0,"CLASSIFICATION_TYPE":"U","NORAD_CAT_ID":30466,"ELEMENT_SET_NO":999,"REV_AT_EPOCH":98543,"BSTAR":0.0012269459,"MEAN_MOTION_DOT":2.924e-5,"MEAN_MOTION_DDOT":0},{"OBJECT_NAME":"FENGYUN 1C DEB","OBJECT_ID":"1999-025AGE","EPOCH":"2026-03-06T12:40:53.645952","MEAN_MOTION":14.17617979,"ECCENTRICITY":0.00632166,"INCLINATION":98.6705,"RA_OF_ASC_NODE":96.0723,"ARG_OF_PERICENTER":245.961,"MEAN_ANOMALY":273.9488,"EPHEMERIS_TYPE":0,"CLASSIFICATION_TYPE":"U","NORAD_CAT_ID":30467,"ELEMENT_SET_NO":999,"REV_AT_EPOCH":98364,"BSTAR":0.00098150846,"MEAN_MOTION_DOT":1.992e-5,"MEAN_MOTION_DDOT":0},{"OBJECT_NAME":"FENGYUN 1C DEB","OBJECT_ID":"1999-025AGF","EPOCH":"2026-03-06T05:41:08.291328","MEAN_MOTION":14.21382704,"ECCENTRICITY":0.00747193,"INCLINATION":98.913,"RA_OF_ASC_NODE":152.5297,"ARG_OF_PERICENTER":159.6504,"MEAN_ANOMALY":262.1376,"EPHEMERIS_TYPE":0,"CLASSIFICATION_TYPE":"U","NORAD_CAT_ID":30468,"ELEMENT_SET_NO":999,"REV_AT_EPOCH":97996,"BSTAR":0.0020415204,"MEAN_MOTION_DOT":4.543e-5,"MEAN_MOTION_DDOT":0},{"OBJECT_NAME":"FENGYUN 1C DEB","OBJECT_ID":"1999-025AGG","EPOCH":"2026-03-06T01:37:16.835808","MEAN_MOTION":13.967803,"ECCENTRICITY":0.01588792,"INCLINATION":98.4765,"RA_OF_ASC_NODE":274.315,"ARG_OF_PERICENTER":297.3754,"MEAN_ANOMALY":215.6171,"EPHEMERIS_TYPE":0,"CLASSIFICATION_TYPE":"U","NORAD_CAT_ID":30469,"ELEMENT_SET_NO":999,"REV_AT_EPOCH":96869,"BSTAR":0.0010327876,"MEAN_MOTION_DOT":1.555e-5,"MEAN_MOTION_DDOT":0},{"OBJECT_NAME":"FENGYUN 1C DEB","OBJECT_ID":"1999-025AGJ","EPOCH":"2026-03-06T05:00:01.044288","MEAN_MOTION":14.14209433,"ECCENTRICITY":0.00798183,"INCLINATION":99.047,"RA_OF_ASC_NODE":158.8595,"ARG_OF_PERICENTER":20.4173,"MEAN_ANOMALY":9.4033,"EPHEMERIS_TYPE":0,"CLASSIFICATION_TYPE":"U","NORAD_CAT_ID":30471,"ELEMENT_SET_NO":999,"REV_AT_EPOCH":97622,"BSTAR":0.001386191,"MEAN_MOTION_DOT":2.681e-5,"MEAN_MOTION_DDOT":0},{"OBJECT_NAME":"FENGYUN 1C DEB","OBJECT_ID":"1999-025AGK","EPOCH":"2026-03-06T06:08:46.373856","MEAN_MOTION":14.55767823,"ECCENTRICITY":0.00391499,"INCLINATION":98.6475,"RA_OF_ASC_NODE":174.2276,"ARG_OF_PERICENTER":182.7475,"MEAN_ANOMALY":207.2237,"EPHEMERIS_TYPE":0,"CLASSIFICATION_TYPE":"U","NORAD_CAT_ID":30472,"ELEMENT_SET_NO":999,"REV_AT_EPOCH":99255,"BSTAR":0.0028961058,"MEAN_MOTION_DOT":0.00012782,"MEAN_MOTION_DDOT":0},{"OBJECT_NAME":"FENGYUN 1C DEB","OBJECT_ID":"1999-025AGM","EPOCH":"2026-03-05T17:10:27.040800","MEAN_MOTION":14.39083532,"ECCENTRICITY":0.00267145,"INCLINATION":98.9206,"RA_OF_ASC_NODE":151.8593,"ARG_OF_PERICENTER":122.7741,"MEAN_ANOMALY":7.3112,"EPHEMERIS_TYPE":0,"CLASSIFICATION_TYPE":"U","NORAD_CAT_ID":30474,"ELEMENT_SET_NO":999,"REV_AT_EPOCH":98586,"BSTAR":0.002479694,"MEAN_MOTION_DOT":7.659e-5,"MEAN_MOTION_DDOT":0},{"OBJECT_NAME":"FENGYUN 1C DEB","OBJECT_ID":"1999-025AGN","EPOCH":"2026-03-06T19:16:09.142176","MEAN_MOTION":14.15955032,"ECCENTRICITY":0.004263,"INCLINATION":98.7801,"RA_OF_ASC_NODE":111.1401,"ARG_OF_PERICENTER":54.6862,"MEAN_ANOMALY":12.4701,"EPHEMERIS_TYPE":0,"CLASSIFICATION_TYPE":"U","NORAD_CAT_ID":30475,"ELEMENT_SET_NO":999,"REV_AT_EPOCH":98141,"BSTAR":0.00080851,"MEAN_MOTION_DOT":1.564e-5,"MEAN_MOTION_DDOT":0},{"OBJECT_NAME":"FENGYUN 1C DEB","OBJECT_ID":"1999-025AGP","EPOCH":"2026-03-06T14:50:20.734656","MEAN_MOTION":14.21483085,"ECCENTRICITY":0.00456003,"INCLINATION":99.1159,"RA_OF_ASC_NODE":110.5383,"ARG_OF_PERICENTER":63.2108,"MEAN_ANOMALY":87.7253,"EPHEMERIS_TYPE":0,"CLASSIFICATION_TYPE":"U","NORAD_CAT_ID":30476,"ELEMENT_SET_NO":999,"REV_AT_EPOCH":98036,"BSTAR":0.0014948934,"MEAN_MOTION_DOT":3.259e-5,"MEAN_MOTION_DDOT":0},{"OBJECT_NAME":"FENGYUN 1C DEB","OBJECT_ID":"1999-025AGQ","EPOCH":"2026-03-06T04:09:33.797376","MEAN_MOTION":13.24062808,"ECCENTRICITY":0.04308132,"INCLINATION":99.4179,"RA_OF_ASC_NODE":145.4783,"ARG_OF_PERICENTER":77.9176,"MEAN_ANOMALY":315.4762,"EPHEMERIS_TYPE":0,"CLASSIFICATION_TYPE":"U","NORAD_CAT_ID":30477,"ELEMENT_SET_NO":999,"REV_AT_EPOCH":91823,"BSTAR":0.00088949614,"MEAN_MOTION_DOT":5.88e-6,"MEAN_MOTION_DDOT":0},{"OBJECT_NAME":"FENGYUN 1C DEB","OBJECT_ID":"1999-025AGS","EPOCH":"2026-03-06T12:01:14.970144","MEAN_MOTION":14.33774814,"ECCENTRICITY":0.01640822,"INCLINATION":98.2217,"RA_OF_ASC_NODE":81.2093,"ARG_OF_PERICENTER":255.5035,"MEAN_ANOMALY":263.3503,"EPHEMERIS_TYPE":0,"CLASSIFICATION_TYPE":"U","NORAD_CAT_ID":30480,"ELEMENT_SET_NO":999,"REV_AT_EPOCH":99868,"BSTAR":0.00030209459,"MEAN_MOTION_DOT":9.29e-6,"MEAN_MOTION_DDOT":0},{"OBJECT_NAME":"FENGYUN 1C DEB","OBJECT_ID":"1999-025AGT","EPOCH":"2026-03-05T23:57:41.277024","MEAN_MOTION":14.39412996,"ECCENTRICITY":0.02231792,"INCLINATION":98.3322,"RA_OF_ASC_NODE":85.0558,"ARG_OF_PERICENTER":9.9693,"MEAN_ANOMALY":46.4296,"EPHEMERIS_TYPE":0,"CLASSIFICATION_TYPE":"U","NORAD_CAT_ID":30481,"ELEMENT_SET_NO":999,"REV_AT_EPOCH":99681,"BSTAR":0.00072069122,"MEAN_MOTION_DOT":2.955e-5,"MEAN_MOTION_DDOT":0},{"OBJECT_NAME":"FENGYUN 1C DEB","OBJECT_ID":"1999-025AHB","EPOCH":"2026-03-06T18:18:16.045344","MEAN_MOTION":14.15928889,"ECCENTRICITY":0.014014,"INCLINATION":98.4664,"RA_OF_ASC_NODE":81.5251,"ARG_OF_PERICENTER":23.3668,"MEAN_ANOMALY":34.105,"EPHEMERIS_TYPE":0,"CLASSIFICATION_TYPE":"U","NORAD_CAT_ID":30489,"ELEMENT_SET_NO":999,"REV_AT_EPOCH":98576,"BSTAR":0.00040573,"MEAN_MOTION_DOT":8.38e-6,"MEAN_MOTION_DDOT":0},{"OBJECT_NAME":"FENGYUN 1C DEB","OBJECT_ID":"1999-025AHC","EPOCH":"2026-03-06T01:52:18.553728","MEAN_MOTION":15.98614735,"ECCENTRICITY":0.00223201,"INCLINATION":98.326,"RA_OF_ASC_NODE":214.1666,"ARG_OF_PERICENTER":276.5224,"MEAN_ANOMALY":83.3509,"EPHEMERIS_TYPE":0,"CLASSIFICATION_TYPE":"U","NORAD_CAT_ID":30490,"ELEMENT_SET_NO":999,"REV_AT_EPOCH":775,"BSTAR":0.0071770465,"MEAN_MOTION_DOT":0.03007822,"MEAN_MOTION_DDOT":0.0099151134},{"OBJECT_NAME":"FENGYUN 1C DEB","OBJECT_ID":"1999-025AHE","EPOCH":"2026-03-05T19:29:38.433696","MEAN_MOTION":14.54313285,"ECCENTRICITY":0.00995942,"INCLINATION":102.3224,"RA_OF_ASC_NODE":125.6435,"ARG_OF_PERICENTER":201.9328,"MEAN_ANOMALY":157.7576,"EPHEMERIS_TYPE":0,"CLASSIFICATION_TYPE":"U","NORAD_CAT_ID":30492,"ELEMENT_SET_NO":999,"REV_AT_EPOCH":98101,"BSTAR":0.0038236434,"MEAN_MOTION_DOT":0.00017295,"MEAN_MOTION_DDOT":0},{"OBJECT_NAME":"FENGYUN 1C DEB","OBJECT_ID":"1999-025AHF","EPOCH":"2026-03-06T07:50:05.329248","MEAN_MOTION":13.93527765,"ECCENTRICITY":0.01799474,"INCLINATION":98.5761,"RA_OF_ASC_NODE":254.6187,"ARG_OF_PERICENTER":345.0099,"MEAN_ANOMALY":137.8895,"EPHEMERIS_TYPE":0,"CLASSIFICATION_TYPE":"U","NORAD_CAT_ID":30493,"ELEMENT_SET_NO":999,"REV_AT_EPOCH":96259,"BSTAR":0.0016491927,"MEAN_MOTION_DOT":2.432e-5,"MEAN_MOTION_DDOT":0}]
