FENGYUN 1C DEB          
1 30466U 99025AGD 26065.59656337  .00002924  00000+0  12269-2 0  9995
2 30466  98.6461 109.1467 0118293 140.7108  11.0222 14.22946248985437
FENGYUN 1C DEB          
1 30467U 99025AGE 26065.52839868  .00001992  00000+0  98151-3 0  9990
2 30467  98.6705  96.0723 0063216 245.9610 273.9488 14.17617979983642
FENGYUN 1C DEB          
1 30468U 99025AGF 26065.23690152  .00004543  00000+0  20415-2 0  9992
2 30468  98.9130 152.5297 0074719 159.6504 262.1376 14.21382704979961
FENGYUN 1C DEB          
1 30469U 99025AGG 26065.06755597  .00001555  00000+0  10328-2 0  9991
2 30469  98.4765 274.3150 0158879 297.3754 215.6171 13.96780300968698
FENGYUN 1C DEB          
1 30471U 99025AGJ 26065.20834542  .00002681  00000+0  13862-2 0  9995
2 30471  99.0470 158.8595 0079818  20.4173   9.4033 14.14209433976223
FENGYUN 1C DEB          
1 30472U 99025AGK 26065.25609229  .00012782  00000+0  28961-2 0  9992
2 30472  98.6475 174.2276 0039149 182.7475 207.2237 14.55767823992557
FENGYUN 1C DEB          
1 30474U 99025AGM 26064.71559075  .00007659  00000+0  24797-2 0  9997
2 30474  98.9206 151.8593 0026714 122.7741   7.3112 14.39083532985868
FENGYUN 1C DEB          
1 30475U 99025AGN 26065.80288359  .00001564  00000+0  80851-3 0  9996
2 30475  98.7801 111.1401 0042630  54.6862  12.4701 14.15955032981412
FENGYUN 1C DEB          
1 30476U 99025AGP 26065.61829554  .00003259  00000+0  14949-2 0  9991
2 30476  99.1159 110.5383 0045600  63.2108  87.7253 14.21483085980366
FENGYUN 1C DEB          
1 30477U 99025AGQ 26065.17330784  .00000588  00000+0  88950-3 0  9991
2 30477  99.4179 145.4783 0430813  77.9176 315.4762 13.24062808918235
FENGYUN 1C DEB          
1 30480U 99025AGS 26065.50086771  .00000929  00000+0  30209-3 0  9999
2 30480  98.2217  81.2093 0164082 255.5035 263.3503 14.33774814998689
FENGYUN 1C DEB          
1 30481U 99025AGT 26064.99839441  .00002955  00000+0  72069-3 0  9993
2 30481  98.3322  85.0558 0223179   9.9693  46.4296 14.39412996996818
FENGYUN 1C DEB          
1 30489U 99025AHB 26065.76268571  .00000838  00000+0  40573-3 0  9990
2 30489  98.4664  81.5251 0140140  23.3668  34.1050 14.15928889985766
FENGYUN 1C DEB          
1 30490U 99025AHC 26065.07799252  .03007822  99151-2  71770-2 0  9994
2 30490  98.3260 214.1666 0022320 276.5224  83.3509 15.98614735  7755
FENGYUN 1C DEB          
1 30492U 99025AHE 26064.81225039  .00017295  00000+0  38236-2 0  9998
2 30492 102.3224 125.6435 0099594 201.9328 157.7576 14.54313285981014
FENGYUN 1C DEB          
1 30493U 99025AHF 26065.32645057  .00002432  00000+0  16492-2 0  9999
2 30493  98.5761 254.6187 0179947 345.0099 137.8895 13.93527765962597
